NORAD_CAT_ID,OBJECT_NAME,OBJECT_TYPE,EPOCH,MEAN_MOTION,ECCENTRICITY,INCLINATION,RA_OF_ASC_NODE,ARG_OF_PERICENTER,MEAN_ANOMALY,BSTAR,MEAN_MOTION_DOT,MEAN_MOTION_DDOT,TLE_LINE0,TLE_LINE1,TLE_LINE2,SEMIMAJOR_AXIS,PERIOD,APOGEE,PERIGEE,DECAYED
54095.0,STARLINK-5193,PAYLOAD,2023-10-30 06:29:17,15.08843517,0.0001485,53.2178,240.8535,101.2307,258.8853,0.00025761,3.815e-05,0.0,0 STARLINK-5193,1 54095U 22136AW  23303.27033774  .00003815  00000-0  25761-3 0  9992,2 54095  53.2178 240.8535 0001485 101.2307 258.8853 15.08843517 56945,6917.87,95.437,540.762,538.707,0.0
54095.0,STARLINK-5193,PAYLOAD,2023-10-31 03:09:18,15.08838768,0.000146,53.2175,236.9874,95.9849,264.131,0.00010154,1.328e-05,0.0,0 STARLINK-5193,1 54095U 22136AW  23304.13146293  .00001328  00000-0  10154-3 0  9996,2 54095  53.2175 236.9874 0001460  95.9849 264.1310 15.08838768 57544,6917.884,95.438,540.759,538.739,0.0
54095.0,STARLINK-5193,PAYLOAD,2023-10-31 12:41:37,15.0884334,0.0001534,53.2178,235.2052,85.6812,274.4356,0.00019103,2.754e-05,0.0,0 STARLINK-5193,1 54095U 22136AW  23304.52890308  .00002754  00000-0  19103-3 0  9999,2 54095  53.2178 235.2052 0001534  85.6812 274.4356 15.08843340 57136,6917.87,95.437,540.796,538.674,0.0
54095.0,STARLINK-5193,PAYLOAD,2023-11-01 04:35:28,15.08852027,0.0001563,53.2181,232.2304,83.3166,276.8004,0.00036499,5.527e-05,0.0,0 STARLINK-5193,1 54095U 22136AW  23305.19130036  .00005527  00000-0  36499-3 0  9996,2 54095  53.2181 232.2304 0001563  83.3166 276.8004 15.08852027 57707,6917.844,95.437,540.79,538.627,0.0
54095.0,STARLINK-5193,PAYLOAD,2023-11-01 12:32:24,15.08843769,0.0001422,53.2183,230.7444,92.8318,267.2837,0.00022845,3.35e-05,0.0,0 STARLINK-5193,1 54095U 22136AW  23305.52250262  .00003350  00000-0  22845-3 0  9999,2 54095  53.2183 230.7444 0001422  92.8318 267.2837 15.08843769 57751,6917.869,95.437,540.718,538.75,0.0
54095.0,STARLINK-5193,PAYLOAD,2023-11-02 12:23:11,15.08839143,0.0002051,53.2187,226.2837,83.1444,276.9781,-7.3245e-06,-4.05e-06,0.0,0 STARLINK-5193,1 54095U 22136AW  23306.51610459 -.00000405  00000-0 -73245-5 0  9999,2 54095  53.2187 226.2837 0002051  83.1444 276.9781 15.08839143 57906,6917.883,95.438,541.167,538.329,0.0
54095.0,STARLINK-5193,PAYLOAD,2023-11-02 21:55:30,15.08839028,0.0001622,53.2185,224.4992,88.0808,272.037,2.4862e-06,-2.48e-06,0.0,0 STARLINK-5193,1 54095U 22136AW  23306.91354330 -.00000248  00000-0  24862-5 0  9991,2 54095  53.2185 224.4992 0001622  88.0808 272.0370 15.08839028 57494,6917.883,95.438,540.87,538.626,0.0
54095.0,STARLINK-5193,PAYLOAD,2023-11-03 04:17:02,15.08846797,0.0001629,53.2179,223.3076,94.5244,265.5934,0.00012099,1.638e-05,0.0,0 STARLINK-5193,1 54095U 22136AW  23307.17849975  .00001638  00000-0  12099-3 0  9994,2 54095  53.2179 223.3076 0001629  94.5244 265.5934 15.08846797 57530,6917.86,95.437,540.852,538.598,0.0
54095.0,STARLINK-5193,PAYLOAD,2023-11-03 21:46:17,15.08841537,0.0001657,53.217,220.0357,99.4256,260.6923,0.00012124,1.642e-05,0.0,0 STARLINK-5193,1 54095U 22136AW  23307.90714310  .00001642  00000-0  12124-3 0  9993,2 54095  53.2170 220.0357 0001657  99.4256 260.6923 15.08841537 57648,6917.876,95.437,540.887,538.594,0.0
54095.0,STARLINK-5193,PAYLOAD,2023-11-04 04:07:49,15.08850359,0.0001513,53.2175,218.8477,102.5168,257.5994,0.00027405,4.077e-05,0.0,0 STARLINK-5193,1 54095U 22136AW  23308.17209936  .00004077  00000-0  27405-3 0  9999,2 54095  53.2175 218.8477 0001513 102.5168 257.5994 15.08850359 57689,6917.849,95.437,540.76,538.667,0.0
54095.0,STARLINK-5193,PAYLOAD,2023-11-04 21:37:04,15.08838358,0.0001509,53.217,215.575,100.8399,259.2763,0.00010858,1.44e-05,0.0,0 STARLINK-5193,1 54095U 22136AW  23308.90074546  .00001440  00000-0  10858-3 0  9992,2 54095  53.2170 215.5750 0001509 100.8399 259.2763 15.08838358 57794,6917.885,95.438,540.794,538.706,0.0
54095.0,STARLINK-5193,PAYLOAD,2023-11-05 03:58:36,15.08855043,0.0001433,53.2165,214.3875,85.3803,274.7353,0.00039982,6.083e-05,0.0,0 STARLINK-5193,1 54095U 22136AW  23309.16569976  .00006083  00000-0  39982-3 0  9994,2 54095  53.2165 214.3875 0001433  85.3803 274.7353 15.08855043 58301,6917.834,95.437,540.691,538.708,0.0
54095.0,STARLINK-5193,PAYLOAD,2023-11-05 10:20:08,15.08854437,0.0001354,53.2164,213.1974,80.0003,280.1142,0.00043894,6.707e-05,0.0,0 STARLINK-5193,1 54095U 22136AW  23309.43065957  .00006707  00000-0  43894-3 0  9994,2 54095  53.2164 213.1974 0001354  80.0003 280.1142 15.08854437 57877,6917.836,95.437,540.638,538.765,0.0
54095.0,STARLINK-5193,PAYLOAD,2023-11-05 21:27:49,15.08873444,0.0001292,53.2158,211.1155,77.0683,283.0453,0.00060561,9.372e-05,0.0,0 STARLINK-5193,1 54095U 22136AW  23309.89432846  .00009372  00000-0  60561-3 0  9990,2 54095  53.2158 211.1155 0001292  77.0683 283.0453 15.08873444 57944,6917.778,95.435,540.537,538.749,0.0
54095.0,STARLINK-5193,PAYLOAD,2023-11-06 00:38:35,15.08902461,0.0001254,53.2158,210.5217,89.0567,271.0569,0.0016166,0.00025578,0.0,0 STARLINK-5193,1 54095U 22136AW  23310.02679895  .00025578  00000-0  16166-2 0  9991,2 54095  53.2158 210.5217 0001254  89.0567 271.0569 15.08902461 58430,6917.689,95.434,540.422,538.687,0.0
54095.0,STARLINK-5193,PAYLOAD,2023-11-06 10:10:53,15.08888077,0.0001407,53.217,208.7392,82.8075,277.3077,0.00075652,0.00011788,0.0,0 STARLINK-5193,1 54095U 22136AW  23310.42422895  .00011788  00000-0  75652-3 0  9995,2 54095  53.2170 208.7392 0001407  82.8075 277.3077 15.08888077 58497,6917.733,95.435,540.572,538.625,0.0
54095.0,STARLINK-5193,PAYLOAD,2023-11-06 21:18:36,15.08823001,0.0001,53.2156,206.6549,52.9555,307.1528,-0.0011709,-0.00018865,0.0,0 STARLINK-5193,1 54095U 22136AW  23310.88792041 -.00018865  00000-0 -11709-2 0  9995,2 54095  53.2156 206.6549 0001000  52.9555 307.1528 15.08823001 58097,6917.932,95.439,540.489,539.106,0.0
54095.0,STARLINK-5193,PAYLOAD,2023-11-07 00:29:23,15.08801094,0.0001158,53.2154,206.0604,63.5252,296.5859,-0.0016196,-0.00025944,0.0,0 STARLINK-5193,1 54095U 22136AW  23311.02040877 -.00025944  00000-0 -16196-2 0  9996,2 54095  53.2154 206.0604 0001158  63.5252 296.5859 15.08801094 58587,6917.999,95.44,540.665,539.063,0.0
54095.0,STARLINK-5193,PAYLOAD,2023-11-07 10:01:43,15.08795253,0.0001397,53.2164,204.2795,93.3919,266.7233,-0.00099945,-0.00016139,0.0,0 STARLINK-5193,1 54095U 22136AW  23311.41786211 -.00016139  00000-0 -99945-3 0  9998,2 54095  53.2164 204.2795 0001397  93.3919 266.7233 15.08795253 58646,6918.017,95.44,540.849,538.916,0.0
54095.0,STARLINK-5193,PAYLOAD,2023-11-08 01:55:36,15.08815076,0.0001369,53.2161,201.3063,96.81,263.3048,0.0017271,0.00027287,0.0,0 STARLINK-5193,1 54095U 22136AW  23312.08028392  .00027287  00000-0  17271-2 0  9996,2 54095  53.2161 201.3063 0001369  96.8100 263.3048 15.08815076 58742,6917.957,95.439,540.769,538.875,0.0
54095.0,STARLINK-5193,PAYLOAD,2023-11-08 22:35:36,15.0886486,0.0001224,53.2163,197.4419,96.86,263.2532,0.0013508,0.0002129,0.0,0 STARLINK-5193,1 54095U 22136AW  23312.94139842  .00021290  00000-0  13508-2 0  9991,2 54095  53.2163 197.4419 0001224  96.8600 263.2532 15.08864860 58404,6917.804,95.436,540.516,538.823,0.0
54095.0,STARLINK-5193,PAYLOAD,2023-11-09 01:46:22,15.08881907,0.0001382,53.2165,196.8477,94.4664,265.6486,0.0019396,0.00030751,0.0,0 STARLINK-5193,1 54095U 22136AW  23313.07387507  .00030751  00000-0  19396-2 0  9992,2 54095  53.2165 196.8477 0001382  94.4664 265.6486 15.08881907 58890,6917.752,95.435,540.573,538.661,0.0
54095.0,STARLINK-5193,PAYLOAD,2023-11-09 22:26:23,15.08860841,0.0001192,53.2163,192.9804,94.8807,265.2321,0.0015174,0.00023958,0.0,0 STARLINK-5193,1 54095U 22136AW  23313.93499321  .00023958  00000-0  15174-2 0  9996,2 54095  53.2163 192.9804 0001192  94.8807 265.2321 15.08860841 58552,6917.817,95.436,540.506,538.857,0.0
54095.0,STARLINK-5193,PAYLOAD,2023-11-10 09:34:05,15.08851166,0.0001505,53.2169,190.8991,91.0758,269.0406,0.0017622,0.00027877,0.0,0 STARLINK-5193,1 54095U 22136AW  23314.39867331  .00027877  00000-0  17622-2 0  9991,2 54095  53.2169 190.8991 0001505  91.0758 269.0406 15.08851166 59090,6917.846,95.437,540.752,538.67,0.0
54095.0,STARLINK-5193,PAYLOAD,2023-11-10 19:06:24,15.08851582,0.0001739,53.2173,189.1131,106.2959,253.8224,0.0010825,0.00016987,0.0,0 STARLINK-5193,1 54095U 22136AW  23314.79611168  .00016987  00000-0  10825-2 0  9998,2 54095  53.2173 189.1131 0001739 106.2959 253.8224 15.08851582 59151,6917.845,95.437,540.913,538.507,0.0
54095.0,STARLINK-5193,PAYLOAD,2023-11-10 22:17:10,15.08852457,0.0001487,53.2169,188.5193,96.2984,263.8178,0.00071997,0.00011193,0.0,0 STARLINK-5193,1 54095U 22136AW  23314.92859064  .00011193  00000-0  71997-3 0  9994,2 54095  53.2169 188.5193 0001487  96.2984 263.8178 15.08852457 58704,6917.842,95.437,540.736,538.679,0.0
54095.0,STARLINK-5193,PAYLOAD,2023-11-11 18:57:11,15.08844938,0.0001706,53.2156,184.6505,98.2877,261.8309,0.00038221,5.801e-05,0.0,0 STARLINK-5193,1 54095U 22136AW  23315.78971268  .00005801  00000-0  38221-3 0  9992,2 54095  53.2156 184.6505 0001706  98.2877 261.8309 15.08844938 59307,6917.865,95.437,540.91,538.55,0.0
54095.0,STARLINK-5193,PAYLOAD,2023-11-11 22:07:57,15.08840441,0.000142,53.216,184.0594,84.5922,275.5232,0.0002908,4.343e-05,0.0,0 STARLINK-5193,1 54095U 22136AW  23315.92219424  .00004343  00000-0  29080-3 0  9990,2 54095  53.2160 184.0594 0001420  84.5922 275.5232 15.08840441 58857,6917.879,95.438,540.726,538.762,0.0
54095.0,STARLINK-5193,PAYLOAD,2023-11-12 18:47:58,15.08847878,0.0001356,53.2161,180.1931,84.8519,275.2628,0.00033639,5.071e-05,0.0,0 STARLINK-5193,1 54095U 22136AW  23316.78331351  .00005071  00000-0  33639-3 0  9993,2 54095  53.2161 180.1931 0001356  84.8519 275.2628 15.08847878 59457,6917.856,95.437,540.659,538.783,0.0
54095.0,STARLINK-5193,PAYLOAD,2023-11-12 21:58:44,15.08850854,0.0001407,53.2157,179.5992,85.1215,274.9938,0.0003614,5.47e-05,0.0,0 STARLINK-5193,1 54095U 22136AW  23316.91579171  .00005470  00000-0  36140-3 0  9995,2 54095  53.2157 179.5992 0001407  85.1215 274.9938 15.08850854 59004,6917.847,95.437,540.686,538.739,0.0
